{"type":"FeatureCollection","features":[{"type":"Feature","id":"f29f9117-f7d5-456f-a05e-9473f477e383","properties":{"id":"f29f9117-f7d5-456f-a05e-9473f477e383","updated_date":"2025-07-09T18:33:57Z","time_created":"2025-07-09T18:33:52Z","last_updated_on_server":"2025-07-09T18:33:57.788019","db_insert_date":"2025-07-09T18:33:57Z","deleted":false,"title":"Gavin Lake","public":false,"color":"#ffaa00","hexcolor":"#ffaa00","is_active":true,"revision":1752086037,"notes":"<html xmlns:fo=\"http://www.w3.org/1999/XSL/Format\" xmlns:msxsl=\"urn:schemas-microsoft-com:xslt\">\n\n<head>\n\n<META http-equiv=\"Content-Type\" content=\"text/html\">\n\n<meta http-equiv=\"content-type\" content=\"text/html; charset=UTF-8\">\n\n</head>\n\n<body style=\"margin:0px 0px 0px 0px;overflow:auto;background:#FFFFFF;\">\n\n<table style=\"font-family:Arial,Verdana,Times;font-size:12px;text-align:left;width:100%;border-collapse:collapse;padding:3px 3px 3px 3px\">\n\n<tr style=\"text-align:center;font-weight:bold;background:#9CBCE2\">\n\n<td>Gavin Lake</td>\n\n</tr>\n\n<tr>\n\n<td>\n\n<table style=\"font-family:Arial,Verdana,Times;font-size:12px;text-align:left;width:100%;border-spacing:0px; padding:3px 3px 3px 3px\">\n\n<tr>\n\n<td>FID</td>\n\n<td>0</td>\n\n</tr>\n\n<tr bgcolor=\"#D4E4F3\">\n\n<td>ID</td>\n\n<td>1</td>\n\n</tr>\n\n<tr>\n\n<td>BLOCK</td>\n\n<td>Gavin Lake</td>\n\n</tr>\n\n<tr bgcolor=\"#D4E4F3\">\n\n<td>SHAPE_LENG</td>\n\n<td>43626.358347</td>\n\n</tr>\n\n<tr>\n\n<td>SHAPE_AREA</td>\n\n<td>63858711.22</td>\n\n</tr>\n\n</table>\n\n</td>\n\n</tr>\n\n</table>\n\n</body>\n\n</html>","track_type":"polygon","routing_mode":null,"uploaded_gpx_to_osm":null,"flag":null,"source":null,"cover_photo_id":null,"distance":0.0,"total_ascent":0.0,"total_descent":0.0,"stopped_time":0.0,"total_time":0.0,"average_speed":0,"moving_time":0.0,"moving_speed":0,"activities":[],"imported":null,"folder":"16adf6d8-f7ca-48fd-989f-4221b46b6044","privacy_level":null,"sync_to_mobile":true,"preferred_link":"/public/28LWEfywEVMjQmPPRM44mWgP","favorite_count":0,"comment_count":0,"comments":[],"user_photo_count":0,"writable":false},"style":{"stroke":"#ffaa00"},"geometry":{"type":"Polygon","coordinates":[[[-121.7678822743587,52.49471549145472,0.0],[-121.768209923492,52.4947349282446,0.0],[-121.7684474962649,52.49468932605505,0.0],[-121.7694147315864,52.49445952147146,0.0],[-121.7697466546359,52.49434159841456,0.0],[-121.7699425200081,52.49428519512411,0.0],[-121.7702359898079,52.49419384311989,0.0],[-121.7704705610231,52.49413334589798,0.0],[-121.7710979847232,52.49391959149487,0.0],[-121.7712486383962,52.49386271643758,0.0],[-121.7714465106444,52.49376587320504,0.0],[-121.7714606864361,52.49365363621637,0.0],[-121.7715489846895,52.49349271982209,0.0],[-121.7716915152022,52.49343126449424,0.0],[-121.7717542174215,52.49339595250315,0.0],[-121.7721433794893,52.49324265402587,0.0],[-121.7725222680907,52.49315667820273,0.0],[-121.772693879443,52.49314047705494,0.0],[-121.7727190158616,52.49313174706824,0.0],[-121.7731177153488,52.49303248874434,0.0],[-121.7732955550945,52.49302534204813,0.0],[-121.7736393095426,52.49304459236355,0.0],[-121.7739524888281,52.49311193865829,0.0],[-121.7741219794959,52.49315375772392,0.0],[-121.7743306181082,52.4932039946659,0.0],[-121.7745521579746,52.49326237742331,0.0],[-121.7747886031624,52.49325681365821,0.0],[-121.7750085978735,52.49319593352599,0.0],[-121.7752761873717,52.49314475940961,0.0],[-121.7754907995232,52.49307055956676,0.0],[-121.7755194822632,52.49303489349357,0.0],[-121.7756027390215,52.49301777366902,0.0],[-121.7758259833085,52.49290320425806,0.0],[-121.7760654593321,52.49276632551521,0.0],[-121.776090719663,52.49275310073092,0.0],[-121.7762324399876,52.49261970572053,0.0],[-121.7762976755474,52.49256194070926,0.0],[-121.7764844541121,52.492429011428,0.0],[-121.7766360623069,52.49224177379516,0.0],[-121.7767611728985,52.49214416933616,0.0],[-121.7769839003031,52.49201610631196,0.0],[-121.7772305614868,52.4918163643718,0.0],[-121.7774209243082,52.49172392896269,0.0],[-121.7776238816751,52.49167657703887,0.0],[-121.7779766492402,52.49167123053483,0.0],[-121.7783487666287,52.49173919223836,0.0],[-121.7787131047337,52.49185512953262,0.0],[-121.779261833825,52.49194893071845,0.0],[-121.7795885808576,52.49200037698008,0.0],[-121.7799411315282,52.49206811354248,0.0],[-121.7803463975976,52.49212837993949,0.0],[-121.7808299608053,52.49220547690819,0.0],[-121.7811713852468,52.49220098214729,0.0],[-121.7815388345955,52.4922047669815,0.0],[-121.7817612647458,52.49223109518222,0.0],[-121.7821295996747,52.49220283708545,0.0],[-121.7825548960671,52.49213200368042,0.0],[-121.7827842544411,52.49209390531625,0.0],[-121.7829219668975,52.49207284523275,0.0],[-121.7831332903085,52.49202107457489,0.0],[-121.7834553552077,52.49185805820705,0.0],[-121.7838115955705,52.49172685982751,0.0],[-121.7840908990093,52.49158138361801,0.0],[-121.7842382345956,52.49154243945405,0.0],[-121.7844627758762,52.49151327907724,0.0],[-121.7848648724336,52.49154989475063,0.0],[-121.7851916233067,52.49160132556282,0.0],[-121.7854543651143,52.49160887448574,0.0],[-121.785792564225,52.49166179483989,0.0],[-121.7860573688327,52.49167350291167,0.0],[-121.7862832052048,52.49166682918364,0.0],[-121.7865094241183,52.49170511257346,0.0],[-121.7867257363749,52.49170733103809,0.0],[-121.7870383982529,52.49171952767458,0.0],[-121.7874276256153,52.49175948040014,0.0],[-121.7878107246253,52.49182850299669,0.0],[-121.7882818355403,52.49188140423448,0.0],[-121.7886210557588,52.4919569908971,0.0],[-121.7889983263106,52.49208104134803,0.0],[-121.7894679015743,52.49219000995863,0.0],[-121.7899347137005,52.49225266646786,0.0],[-121.7901523226575,52.4923043408822,0.0],[-121.790234733055,52.49232316501576,0.0],[-121.7905004468323,52.492366339937,0.0],[-121.790844602933,52.49237435308722,0.0],[-121.790950992162,52.49238892642185,0.0],[-121.7912574275185,52.49239205753041,0.0],[-121.7913674982817,52.49240666810216,0.0],[-121.791489496695,52.49242140040772,0.0],[-121.7916877968671,52.49244140723407,0.0],[-121.791979753583,52.49243539788058,0.0],[-121.7922515364208,52.49242918187078,0.0],[-121.7925965091174,52.49236976786572,0.0],[-121.7927079803289,52.49237090540241,0.0],[-121.7930368508642,52.49232930724189,0.0],[-121.7932857601493,52.49231386479384,0.0],[-121.793332096623,52.49230534667102,0.0],[-121.7935850560143,52.49227645882404,0.0],[-121.7937976676058,52.49224715909495,0.0],[-121.7940047591037,52.49217734448636,0.0],[-121.794026086537,52.4921730665233,0.0],[-121.79415052108,52.49206644622498,0.0],[-121.7942445440756,52.49202694625073,0.0],[-121.7943131907734,52.49197819688349,0.0],[-121.7943718752836,52.4918843923699,0.0],[-121.7944615555151,52.49180438973936,0.0],[-121.7945175645889,52.49170606253262,0.0],[-121.7945531896095,52.49152080277011,0.0],[-121.7946669351557,52.49120145984767,0.0],[-121.7948596351867,52.49087490853632,0.0],[-121.7950761694448,52.49063673764739,0.0],[-121.7952911690038,52.49045463855465,0.0],[-121.7955156891952,52.49031817156717,0.0],[-121.7957878286426,52.49016360425045,0.0],[-121.7961034280238,52.49006791823454,0.0],[-121.7964413829572,52.48999493560244,0.0],[-121.7968236332302,52.48991790712892,0.0],[-121.7970203534184,52.48989293539966,0.0],[-121.7971866181341,52.48987214907678,0.0],[-121.7975415291798,52.48985777536792,0.0],[-121.7978683654632,52.4898521060516,0.0],[-121.7981594209524,52.48984607236098,0.0],[-121.7984187278862,52.48984544048872,0.0],[-121.7987732556363,52.48984102808462,0.0],[-121.7993390535083,52.48979068361437,0.0],[-121.7996679899682,52.48976197118613,0.0],[-121.7999702448199,52.4897490122985,0.0],[-121.800364357347,52.48973698409397,0.0],[-121.8010860976993,52.48974430019899,0.0],[-121.8017809400747,52.48977537710895,0.0],[-121.8021617122216,52.48977122034859,0.0],[-121.8027255476323,52.48979295269788,0.0],[-121.8031467749954,52.48974913945696,0.0],[-121.8029083220972,52.48934609991017,0.0],[-121.8027630350011,52.48889592742413,0.0],[-121.8027461445843,52.48855121718415,0.0],[-121.8028464832704,52.48823974338786,0.0],[-121.8030535365059,52.48786524885735,0.0],[-121.8033537439541,52.48744362096382,0.0],[-121.8037615277556,52.48692692956907,0.0],[-121.8043958442848,52.48628432562518,0.0],[-121.8049269083567,52.48557657495992,0.0],[-121.8051868501363,52.48518658581833,0.0],[-121.8054330151086,52.48482049462616,0.0],[-121.8056382940855,52.48451007796912,0.0],[-121.8058612467513,52.48403157588611,0.0],[-121.8061265930872,52.48344132554588,0.0],[-121.8063108237321,52.4829383941567,0.0],[-121.8065309424702,52.48256402527376,0.0],[-121.8067377203301,52.48219753395767,0.0],[-121.8069429776524,52.48188711477383,0.0],[-121.8071342451593,52.48160860435949,0.0],[-121.8074967211407,52.48130778194571,0.0],[-121.8077509837256,52.48112605610796,0.0],[-121.8081528113146,52.48082562828053,0.0],[-121.8084335246129,52.48063615491868,0.0],[-121.8086757416104,52.48041424303288,0.0],[-121.8089177398093,52.48020034099881,0.0],[-121.8092132958905,52.4799469148494,0.0],[-121.8095118759094,52.47958134271071,0.0],[-121.8097160203158,52.47931097025963,0.0],[-121.8099079074345,52.47900842394746,0.0],[-121.8100978467659,52.47877797067525,0.0],[-121.8102497228734,52.47849905899159,0.0],[-121.8103609430827,52.47826781356481,0.0],[-121.810516920543,52.47783670431502,0.0],[-121.810651409342,52.47722910267176,0.0],[-121.8106916874173,52.47670869177007,0.0],[-121.8106786414787,52.476239265137,0.0],[-121.8106745796162,52.47588322686933,0.0],[-121.8106772289194,52.47529833710944,0.0],[-121.8106639520132,52.47481745037857,0.0],[-121.8106992597047,52.47448127806953,0.0],[-121.8107605867688,52.47415337987466,0.0],[-121.8108614824282,52.47381786685118,0.0],[-121.8111759308561,52.47334828666549,0.0],[-121.8114957203658,52.47316721131867,0.0],[-121.8119097038643,52.47289894309903,0.0],[-121.8125066806572,52.47265654827525,0.0],[-121.812994400259,52.47257330526055,0.0],[-121.8134163151711,52.4724974127221,0.0],[-121.8141784213697,52.47245697969063,0.0],[-121.8151742739572,52.47250702133711,0.0],[-121.8159200361125,52.47258660168416,0.0],[-121.8167034346474,52.47273065423095,0.0],[-121.8178928404775,52.47290279722666,0.0],[-121.8187027011223,52.47303908836094,0.0],[-121.8196824541107,52.4732011068895,0.0],[-121.8206890924456,52.47333934765832,0.0],[-121.8216824054242,52.47348545964408,0.0],[-121.8227421695868,52.47360017441801,0.0],[-121.8235920531142,52.47371279261045,0.0],[-121.8245081711352,52.47380202524165,0.0],[-121.8252025678343,52.47384097372043,0.0],[-121.8260414765048,52.47387333982644,0.0],[-121.8276158443394,52.47388094114044,0.0],[-121.8287839813811,52.47386847501502,0.0],[-121.8297159945914,52.47385366158741,0.0],[-121.8304903793569,52.47384529505743,0.0],[-121.8314744391609,52.47384700740903,0.0],[-121.832380639489,52.47381589292046,0.0],[-121.8332851436344,52.47384885507589,0.0],[-121.8341500835425,52.47388943292274,0.0],[-121.8348963282941,52.47395287304381,0.0],[-121.8353277423537,52.47401320915009,0.0],[-121.8357974546747,52.47411398328678,0.0],[-121.8362149081118,52.47420622889275,0.0],[-121.8366179775358,52.47434640677012,0.0],[-121.8370339565204,52.47449472271275,0.0],[-121.8374344976572,52.47473102334126,0.0],[-121.8377559109486,52.47498257024759,0.0],[-121.8381554053652,52.47525892076621,0.0],[-121.838437260155,52.47551808976545,0.0],[-121.8384377410919,52.4754137322923,0.0],[-121.83861807074,52.47349149164482,0.0],[-121.8388484923314,52.47103029924059,0.0],[-121.8401020084485,52.47105608338348,0.0],[-121.8404800093618,52.47106428464613,0.0],[-121.8403060079125,52.47071643654068,0.0],[-121.8400630652973,52.47040387497999,0.0],[-121.8399407110951,52.4702588237324,0.0],[-121.8396075802249,52.46994987203518,0.0],[-121.8392388124076,52.46959112074311,0.0],[-121.8391445089684,52.46950478352925,0.0],[-121.8389432221762,52.46928253548231,0.0],[-121.8387268385415,52.46904665279457,0.0],[-121.8382471106768,52.46870928569427,0.0],[-121.8381023004966,52.46861795620242,0.0],[-121.8378568892422,52.46846719853496,0.0],[-121.8376595132877,52.46834837988229,0.0],[-121.8373376024711,52.46820136473061,0.0],[-121.8372492431526,52.4681690286867,0.0],[-121.8369865891346,52.46801360432482,0.0],[-121.836671567734,52.46788463650701,0.0],[-121.8362328848442,52.46763307655124,0.0],[-121.8361161597762,52.46756000233305,0.0],[-121.8359703561738,52.46747315576538,0.0],[-121.8358882217902,52.46737794491525,0.0],[-121.8339021544267,52.46736287764076,0.0],[-121.8320736542738,52.46734034217739,0.0],[-121.8311696648351,52.46732700102594,0.0],[-121.8312090482132,52.4649581046619,0.0],[-121.8316299494478,52.46494799017075,0.0],[-121.8310781349976,52.46460712720422,0.0],[-121.8304238038108,52.46460779538908,0.0],[-121.8296639642506,52.46462168886544,0.0],[-121.8285182688935,52.46464602934175,0.0],[-121.82851839422,52.46376111621547,0.0],[-121.8196746578823,52.46372315024972,0.0],[-121.8196542232414,52.46011905692534,0.0],[-121.8147754058783,52.46004311423646,0.0],[-121.8132144005487,52.46004094757917,0.0],[-121.8112936473091,52.46003964069371,0.0],[-121.808092352813,52.46003889128708,0.0],[-121.8080864690452,52.45801141686172,0.0],[-121.8080861340225,52.45795297357154,0.0],[-121.8080828466796,52.45671221598425,0.0],[-121.8080772416177,52.45481061391617,0.0],[-121.8080765972828,52.45469822291353,0.0],[-121.8080712415812,52.45281460425993,0.0],[-121.8080699904716,52.45272468401467,0.0],[-121.8080339102035,52.44881783230209,0.0],[-121.8080271822219,52.44808052135203,0.0],[-121.8070956174895,52.44746425136933,0.0],[-121.8058169880756,52.44662419583126,0.0],[-121.8058378929597,52.44605798810338,0.0],[-121.8058558546403,52.4455951445274,0.0],[-121.8033784596555,52.44559042204158,0.0],[-121.8033859245723,52.44398474440246,0.0],[-121.8055458460229,52.44398464259628,0.0],[-121.8055888748723,52.4437211079305,0.0],[-121.8032498139794,52.44369746024497,0.0],[-121.8027258951886,52.4434416739559,0.0],[-121.8013756528657,52.44291102600645,0.0],[-121.7999999470599,52.44237111328612,0.0],[-121.7988772107166,52.44179779089517,0.0],[-121.7957502900685,52.44019709643703,0.0],[-121.7934142259819,52.43900448049983,0.0],[-121.7925526841459,52.43856412840223,0.0],[-121.7922298677738,52.43839899739459,0.0],[-121.7914226274929,52.43839974067161,0.0],[-121.7899616682068,52.43839828632918,0.0],[-121.7871065458823,52.43840050402408,0.0],[-121.7862559429187,52.43840526265362,0.0],[-121.7862506462819,52.43548769200298,0.0],[-121.7862487337628,52.43478638936066,0.0],[-121.7862444513656,52.4323992853226,0.0],[-121.7862426537893,52.43149569021418,0.0],[-121.7862422797826,52.43117201709258,0.0],[-121.786239464349,52.42973795324961,0.0],[-121.7862350632748,52.4275531394596,0.0],[-121.7860200944928,52.4275509325504,0.0],[-121.7803178721344,52.42755518551103,0.0],[-121.7790225666086,52.42755979855411,0.0],[-121.7744004360104,52.42756592367879,0.0],[-121.7744000844006,52.42737711262186,0.0],[-121.7743964207077,52.42548900020331,0.0],[-121.774395128972,52.42490458270206,0.0],[-121.7733471803886,52.42490720158855,0.0],[-121.7731035773038,52.42490916947888,0.0],[-121.768975402537,52.42491121505185,0.0],[-121.7675047497031,52.42490938038576,0.0],[-121.7657813784236,52.42490938509399,0.0],[-121.763063136676,52.42491244722288,0.0],[-121.7615878014715,52.42491498538224,0.0],[-121.7615890497653,52.42549490786394,0.0],[-121.7615897486045,52.42586353973947,0.0],[-121.7615932766141,52.42862376473806,0.0],[-121.7615942736747,52.42930707887123,0.0],[-121.7615979246498,52.43206280819658,0.0],[-121.7615995942732,52.43282704648384,0.0],[-121.7616001209251,52.43293943740343,0.0],[-121.7616000638099,52.43339796923193,0.0],[-121.7605291003092,52.4333957388904,0.0],[-121.7585045450621,52.4333969768976,0.0],[-121.7580411942616,52.43339660654754,0.0],[-121.7555138781884,52.43339700708076,0.0],[-121.754611902692,52.43340099696411,0.0],[-121.7515991789416,52.43340069580821,0.0],[-121.751601842626,52.43558100231081,0.0],[-121.7516024289972,52.43647110130934,0.0],[-121.751603657235,52.43720836276738,0.0],[-121.7516051111248,52.43845810401583,0.0],[-121.7513614330806,52.43846002663172,0.0],[-121.7510822507421,52.438448087519,0.0],[-121.7508915658209,52.43842809176216,0.0],[-121.7508471900902,52.43843661383751,0.0],[-121.7507886156169,52.43842700423324,0.0],[-121.7507452568066,52.43839957367839,0.0],[-121.7505844950989,52.43836191187518,0.0],[-121.7505403736534,52.43836144568817,0.0],[-121.7504227164712,52.4383602024424,0.0],[-121.7502766623226,52.43832269563511,0.0],[-121.7500707624606,52.43832051942018,0.0],[-121.7497479688973,52.43829013449592,0.0],[-121.7494540810176,52.43827803605058,0.0],[-121.7491470135519,52.43821185244911,0.0],[-121.7488105328846,52.43814535683278,0.0],[-121.7485181743734,52.43807932722073,0.0],[-121.7483282564408,52.43803236292476,0.0],[-121.7480356446341,52.43797532026754,0.0],[-121.7477009514336,52.43784590454023,0.0],[-121.7473667700351,52.4376985116004,0.0],[-121.7473226493064,52.43769804421712,0.0],[-121.7472207207239,52.43766100104448,0.0],[-121.7469002291506,52.43754971515605,0.0],[-121.746680391462,52.43752041280361,0.0],[-121.7463570959876,52.43750799494018,0.0],[-121.7461405759978,52.43736184584471,0.0],[-121.7460241976023,52.43731565757187,0.0],[-121.7458046169141,52.43727736546796,0.0],[-121.7454534417983,52.43721070437915,0.0],[-121.7452348835199,52.43713645869757,0.0],[-121.7449128683737,52.43707909625218,0.0],[-121.7445769138388,52.43699461241167,0.0],[-121.7443297114354,52.43689308840688,0.0],[-121.7443010647815,52.43686581168358,0.0],[-121.7440102551773,52.43674584224053,0.0],[-121.7436877332078,52.43670645273694,0.0],[-121.7433345201084,52.43671169040435,0.0],[-121.7431430790928,52.43671864659045,0.0],[-121.7428058515899,52.43667909837173,0.0],[-121.7426894785241,52.43663290684496,0.0],[-121.7423976512249,52.43654888595935,0.0],[-121.7422376713809,52.43648424851856,0.0],[-121.7421060810198,52.43645587623821,0.0],[-121.7417848431452,52.43637154096227,0.0],[-121.7414775446142,52.43631432569984,0.0],[-121.7411702468915,52.43625710964329,0.0],[-121.7408637186513,52.43617292844071,0.0],[-121.740761030343,52.43616284409865,0.0],[-121.7404679283624,52.4361237590703,0.0],[-121.7401441323981,52.43612930052418,0.0],[-121.7398056300208,52.43613468436312,0.0],[-121.739481320913,52.43615820022755,0.0],[-121.7394224955038,52.43615757313671,0.0],[-121.739318781427,52.43618343999334,0.0],[-121.7390213184588,52.4362971492826,0.0],[-121.7388734846117,52.43632254525648,0.0],[-121.7388141457117,52.43633989408196,0.0],[-121.7387259072585,52.43633895293469,0.0],[-121.7384168159869,52.43634464650952,0.0],[-121.7381229446255,52.43633252000002,0.0],[-121.7379913574356,52.43630414315948,0.0],[-121.7378755041329,52.436239970716,0.0],[-121.7375679548557,52.4361917334365,0.0],[-121.7372588645167,52.43619742399018,0.0],[-121.7369644804649,52.43620327081844,0.0],[-121.7369206184325,52.43619381146021,0.0],[-121.7367188426299,52.43604780240623,0.0],[-121.7363692342522,52.43592718585678,0.0],[-121.7360162840982,52.43592341359688,0.0],[-121.7359716508995,52.43594091819191,0.0],[-121.7357897734311,52.43612778170002,0.0],[-121.7356120111195,52.43617083532805,0.0],[-121.7352582870272,52.4361940250899,0.0],[-121.7351981747789,52.43623833638659,0.0],[-121.7351530261665,52.43627381686268,0.0],[-121.7350905970988,52.43639902097758,0.0],[-121.7351027295184,52.43648905926207,0.0],[-121.7351450470957,52.43655244787559,0.0],[-121.7352601250917,52.43664358726273,0.0],[-121.735390682112,52.43670791952674,0.0],[-121.7357390075457,52.43687347946885,0.0],[-121.7359887268191,52.43698403927555,0.0],[-121.7360739150057,52.43699394070566,0.0],[-121.7361162344541,52.43705732897821,0.0],[-121.7361598399738,52.43707577673749,0.0],[-121.7362888566025,52.43719403661984,0.0],[-121.7365055999947,52.43733121544594,0.0],[-121.736781943027,52.4374420580212,0.0],[-121.7369135327949,52.43747043621877,0.0],[-121.7372520456245,52.43746506072726,0.0],[-121.7374287838698,52.43745795707989,0.0],[-121.7376199719387,52.43745999827623,0.0],[-121.7377523329229,52.43746141123113,0.0],[-121.7378986301769,52.4374899453226,0.0],[-121.7382363727703,52.43751153132985,0.0],[-121.7383821570286,52.43755804103855,0.0],[-121.7385439319728,52.437559766923,0.0],[-121.7386755232554,52.4375881431686,0.0],[-121.7389983035658,52.43761855824116,0.0],[-121.7391595656009,52.43763825950261,0.0],[-121.7394684093437,52.43764155215435,0.0],[-121.7395850381255,52.4376787587283,0.0],[-121.7399204751913,52.4377812329375,0.0],[-121.7399793027739,52.43778185979414,0.0],[-121.7402117930322,52.43788323616607,0.0],[-121.7404726730106,52.43802087784119,0.0],[-121.7405563264274,52.43808470473853,0.0],[-121.7406597632071,52.43816672395113,0.0],[-121.740789435753,52.43826250871372,0.0],[-121.7387628977722,52.43826338850083,0.0],[-121.7365276674421,52.43826200391386,0.0],[-121.7356376346907,52.43826148165014,0.0],[-121.7334327202099,52.43826485811396,0.0],[-121.731059539977,52.43826189249418,0.0],[-121.7290863910721,52.43826317932096,0.0],[-121.7261183503892,52.43826271050175,0.0],[-121.7169630752036,52.43826712302836,0.0],[-121.7145430029072,52.43826781249623,0.0],[-121.7094537260542,52.43826632410836,0.0],[-121.7089222351041,52.43826501778356,0.0],[-121.7052553640964,52.43826538399539,0.0],[-121.7021889602607,52.4382677328197,0.0],[-121.7006165650332,52.43826844673723,0.0],[-121.6992907888458,52.43826735730336,0.0],[-121.6964882129719,52.43826796457112,0.0],[-121.6902118612186,52.43826604257212,0.0],[-121.6875269431411,52.43826774058966,0.0],[-121.6874172292289,52.43821707289644,0.0],[-121.6871706878962,52.4380974543986,0.0],[-121.6871562483702,52.43808830319465,0.0],[-121.6871129298278,52.43806084957241,0.0],[-121.6869399234094,52.43794204700252,0.0],[-121.6867238671351,52.43778680249655,0.0],[-121.6865083469719,52.43761358175487,0.0],[-121.6863080696395,52.43742254816523,0.0],[-121.6860631400579,52.43724899985368,0.0],[-121.6858478925211,52.4370667900047,0.0],[-121.6856620593212,52.43688490669958,0.0],[-121.6856048390315,52.43683032530502,0.0],[-121.6854936088145,52.4366133073789,0.0],[-121.6854845200311,52.43642439754405,0.0],[-121.6854762337932,52.43620852393745,0.0],[-121.6855115306059,52.4360111166149,0.0],[-121.6855294463683,52.43590342502393,0.0],[-121.6856059182583,52.43580537523536,0.0],[-121.6857561866989,52.43569915473612,0.0],[-121.6858003043682,52.43569964507381,0.0],[-121.6859342617575,52.43564718844188,0.0],[-121.6861139405488,52.43554129432513,0.0],[-121.6861732985975,52.43552397207483,0.0],[-121.6864871994797,52.43535663238832,0.0],[-121.6867716865353,52.43518896520933,0.0],[-121.6868770314082,52.43510921705622,0.0],[-121.6869502927256,52.4351190215022,0.0],[-121.6870829112191,52.43511150318891,0.0],[-121.6873775594753,52.43509679261027,0.0],[-121.6874069708728,52.43509711909806,0.0],[-121.6877457360271,52.43508289731849,0.0],[-121.6880401169395,52.43507717301827,0.0],[-121.6883786148765,52.43507193735644,0.0],[-121.6887171127503,52.43506670072507,0.0],[-121.6890264659282,52.43505214911001,0.0],[-121.689338485882,52.43494771730763,0.0],[-121.6895930150761,52.43479769311135,0.0],[-121.689891392653,52.43465714509691,0.0],[-121.6902178468162,52.43456186180733,0.0],[-121.6904844117219,52.43450187795892,0.0],[-121.6907520415261,52.43440594172978,0.0],[-121.6911073702662,52.4343289574898,0.0],[-121.6914183151945,52.43426047190316,0.0],[-121.6917305901804,52.43414704575417,0.0],[-121.6920134528278,52.43403329343751,0.0],[-121.6923674460759,52.43400124511852,0.0],[-121.6926471140167,52.43399534667256,0.0],[-121.6929561926199,52.4339897726676,0.0],[-121.6932949477669,52.43397553491962,0.0],[-121.6935949030435,52.43378104970253,0.0],[-121.6937619770093,52.43360307764952,0.0],[-121.6937536505945,52.43338720426125,0.0],[-121.6937453242427,52.43317133086519,0.0],[-121.6936891617988,52.43308080149022,0.0],[-121.6933557308354,52.4329152813134,0.0],[-121.6930640239758,52.43283113940586,0.0],[-121.6927255435352,52.43283638859894,0.0],[-121.6923576530767,52.43284131158291,0.0],[-121.6919747914403,52.43285505870382,0.0],[-121.6917074398934,52.43294200985495,0.0],[-121.6913833972561,52.43295640584986,0.0],[-121.6913245772184,52.4329557548632,0.0],[-121.6909123043041,52.4329691730306,0.0],[-121.6905730233808,52.43300137989078,0.0],[-121.690263152037,52.4330339115426,0.0],[-121.6898936604055,52.43309275450805,0.0],[-121.6895388728723,52.43315175928552,0.0],[-121.6894289338803,52.43316852259906,0.0],[-121.6894293206815,52.43247622782768,0.0],[-121.6894292756271,52.43241329104642,0.0],[-121.6891043473115,52.43252207539019,0.0],[-121.6801631832154,52.43545704091996,0.0],[-121.6694305525478,52.4389780758387,0.0],[-121.6674077590581,52.43964310196326,0.0],[-121.6663044934621,52.44000378645849,0.0],[-121.664460145372,52.4406078385797,0.0],[-121.6625820997455,52.44122496735297,0.0],[-121.6610905029638,52.44171607448201,0.0],[-121.6582947273349,52.44263292739757,0.0],[-121.6560210111083,52.4433758308251,0.0],[-121.6557023824014,52.44348010005777,0.0],[-121.6542050448291,52.4439710555837,0.0],[-121.6533933092014,52.44423603768559,0.0],[-121.6515865391393,52.4448313271902,0.0],[-121.652804980599,52.44483172794141,0.0],[-121.6559243297775,52.44483125967854,0.0],[-121.6569056668875,52.44482892302532,0.0],[-121.6587705490954,52.44483210709209,0.0],[-121.6589848452844,52.44483004195455,0.0],[-121.6589829515358,52.44770711030773,0.0],[-121.658979320859,52.45115957517495,0.0],[-121.6586040569384,52.45115981476555,0.0],[-121.6580327075859,52.45116232371856,0.0],[-121.6576852367781,52.45115838031933,0.0],[-121.6565198730756,52.45115863365798,0.0],[-121.6554860246333,52.45116037077246,0.0],[-121.6547510906635,52.451161003972,0.0],[-121.6546692173309,52.45125447709965,0.0],[-121.654666620139,52.45127692481079,0.0],[-121.6546482064052,52.45146102883717,0.0],[-121.6546568912265,52.45165892748253,0.0],[-121.6546822045887,52.45179407897025,0.0],[-121.6547050529111,52.45201012052152,0.0],[-121.6547189423251,52.45203725122332,0.0],[-121.6547276275304,52.4522351498475,0.0],[-121.6547368606136,52.45241507289494,0.0],[-121.6547156003659,52.45244629920764,0.0],[-121.6546131439095,52.45261146535315,0.0],[-121.654417238971,52.45276208185643,0.0],[-121.6541624869555,52.45291202837578,0.0],[-121.6540434252193,52.45295562790342,0.0],[-121.6537459069138,52.45306013229961,0.0],[-121.6534175932618,52.45320923981821,0.0],[-121.6532216815897,52.45335985428071,0.0],[-121.6530987782064,52.45352928172784,0.0],[-121.6529755995911,52.4537076968128,0.0],[-121.6528368852911,52.45391290750356,0.0],[-121.652836062362,52.45393987083088,0.0],[-121.6527559196835,52.4541547395024,0.0],[-121.6527049256873,52.45437893108462,0.0],[-121.6526993273134,52.45444180360629,0.0],[-121.6526833551297,52.45460345784274,0.0],[-121.6527422030851,52.45460412824025,0.0],[-121.6527855160726,52.45463159434275,0.0],[-121.6528535897967,52.45481218776442,0.0],[-121.6528502980067,52.45492004105712,0.0],[-121.6526965927022,52.45513407170197,0.0],[-121.6525162053083,52.45525788915665,0.0],[-121.652407457251,52.45544545894732,0.0],[-121.6522703813654,52.45559674223157,0.0],[-121.6521471934961,52.45577515633115,0.0],[-121.6521158474211,52.45583773537453,0.0],[-121.6520400895138,52.45590879912872,0.0],[-121.6519346319621,52.45598851520654,0.0],[-121.6516986837273,52.45600380732142,0.0],[-121.6515232327364,52.45596584337525,0.0],[-121.651422442632,52.45589276693809,0.0],[-121.6513602974321,52.4559999490794,0.0],[-121.6513425640063,52.45609864674493,0.0],[-121.6513512345384,52.45629654538728,0.0],[-121.6513912527586,52.45643186519719,0.0],[-121.6514037683383,52.45650393509688,0.0],[-121.6514571264689,52.45668436148002,0.0],[-121.6516137487597,52.4568569743026,0.0],[-121.6518722636648,52.45706671199988,0.0],[-121.6520577656434,52.45725763519442,0.0],[-121.6523315468245,52.45744956405439,0.0],[-121.6523454364258,52.45747669501225,0.0],[-121.6524412919693,52.45771155051421,0.0],[-121.652453535165,52.45779260806997,0.0],[-121.6523006410669,52.45797967471432,0.0],[-121.6521932575939,52.4581223053362,0.0],[-121.6521627333236,52.45815792105629,0.0],[-121.6520983906013,52.45833700566799,0.0],[-121.6521122803282,52.45836413665017,0.0],[-121.6520939985249,52.45848080992698,0.0],[-121.6520152162171,52.45865073902688,0.0],[-121.6520732460162,52.45867837308986,0.0],[-121.6520407996227,52.45877690313077,0.0],[-121.6519794753303,52.45885712223349,0.0],[-121.6517241303973,52.45902503858483,0.0],[-121.6515115508943,52.45923839646574,0.0],[-121.651408281561,52.45924620986977,0.0],[-121.651306385562,52.45920908437333,0.0],[-121.651249454297,52.45914549888742,0.0],[-121.6511437127829,52.45923420191708,0.0],[-121.6510243562187,52.45928678598556,0.0],[-121.6506976356036,52.45938195886333,0.0],[-121.6505185992617,52.45946083423334,0.0],[-121.6504270194347,52.45956768000195,0.0],[-121.6503659659685,52.45963891047224,0.0],[-121.650359643937,52.45984562890029,0.0],[-121.6503538715803,52.46003437180601,0.0],[-121.6502323126994,52.46015885710293,0.0],[-121.6504538446656,52.46013441242824,0.0],[-121.6505862690385,52.46013592338777,0.0],[-121.6505554672206,52.46018052642089,0.0],[-121.650449721805,52.46026922878875,0.0],[-121.6504180951581,52.46034079505492,0.0],[-121.6504319844568,52.46036792622274,0.0],[-121.6506052532866,52.46047779393259,0.0],[-121.6506474713464,52.46054121185139,0.0],[-121.650629459494,52.4606488970702,0.0],[-121.6503740989855,52.46081681035235,0.0],[-121.6502539124906,52.46089635686207,0.0],[-121.6500173875565,52.46092962093952,0.0],[-121.6498416435612,52.46090064216151,0.0],[-121.6498266544993,52.46090946194411,0.0],[-121.6498102904556,52.46096322049408,0.0],[-121.649757897982,52.46123234916568,0.0],[-121.6497276445762,52.46125897645805,0.0],[-121.6497038653809,52.46128567765741,0.0],[-121.6495594623571,52.4614638468104,0.0],[-121.6495564367808,52.46156271208301,0.0],[-121.649610893261,52.46170718813124,0.0],[-121.6496242323944,52.46175229489118,0.0],[-121.64979585452,52.46191609029659,0.0],[-121.6498514121933,52.46202461522506,0.0],[-121.649850037203,52.46206955398667,0.0],[-121.6498298226854,52.46224914105542,0.0],[-121.6497676644013,52.46235632216059,0.0],[-121.6496621871619,52.4624360359952,0.0],[-121.6497199453728,52.46247265897032,0.0],[-121.6497621640112,52.4625360771885,0.0],[-121.6496989050067,52.46267920925249,0.0],[-121.649604565829,52.46287593177319,0.0],[-121.6495279663997,52.46297395697624,0.0],[-121.6492642012567,52.46293498143077,0.0],[-121.6492489362528,52.46295278888048,0.0],[-121.6491254399936,52.46314018714236,0.0],[-121.6490166575478,52.46332775334181,0.0],[-121.6489694858304,52.46342611431548,0.0],[-121.6489073237549,52.46353329492229,0.0],[-121.6488612524275,52.46359570486082,0.0],[-121.6488459870285,52.46361351225392,0.0],[-121.6488336550728,52.46362685771126,0.0],[-121.6487852005398,52.46367575405942,0.0],[-121.6486633517875,52.46380922531656,0.0],[-121.6484957053062,52.46399611848133,0.0],[-121.648387193335,52.46417469629901,0.0],[-121.6482933956862,52.46435344217759,0.0],[-121.6481990465473,52.46455016345617,0.0],[-121.6481924378827,52.46476586926909,0.0],[-121.6482002691921,52.46499073099984,0.0],[-121.648206899963,52.46513466100334,0.0],[-121.6482089266519,52.46518862949802,0.0],[-121.6482322997296,52.46538669617115,0.0],[-121.6482635815251,52.46556687144136,0.0],[-121.6468110748435,52.46735743107458,0.0],[-121.6464697965642,52.46777609784196,0.0],[-121.6453386182854,52.46916572619306,0.0],[-121.6448518410434,52.46976703499053,0.0],[-121.6437807572498,52.47108540987065,0.0],[-121.6437612760284,52.47171904381187,0.0],[-121.6436996498022,52.47372330388042,0.0],[-121.6436720123668,52.47462207497318,0.0],[-121.6436011156736,52.47692742215127,0.0],[-121.6437663542999,52.47698792829254,0.0],[-121.6441302095993,52.47710427702163,0.0],[-121.6446371343561,52.47726232740107,0.0],[-121.6450146045155,52.47736280401237,0.0],[-121.6453138598589,52.47744635834145,0.0],[-121.645638122697,52.47757026164366,0.0],[-121.6460935691465,52.47769566558402,0.0],[-121.6467571892579,52.47787953819445,0.0],[-121.6472260061188,52.47799707801202,0.0],[-121.6476819528097,52.47810645614531,0.0],[-121.6481510201336,52.47821598245248,0.0],[-121.6484631602196,52.47830768867247,0.0],[-121.6487878346211,52.47839834945071,0.0],[-121.6490738351587,52.47850696860158,0.0],[-121.6494515715824,52.47859942129668,0.0],[-121.6498042987901,52.4786515239345,0.0],[-121.6501453793838,52.47865541655082,0.0],[-121.6505659062783,52.47863617647028,0.0],[-121.65085255257,52.47870354748448,0.0],[-121.6512028325277,52.47883574479099,0.0],[-121.651539751089,52.47897580141303,0.0],[-121.6519680125371,52.47913292336359,0.0],[-121.6523967665926,52.47927402400751,0.0],[-121.6528007541388,52.47936676498186,0.0],[-121.6532314701265,52.47944378352492,0.0],[-121.6537290041019,52.4794814975831,0.0],[-121.654108714547,52.47950985638688,0.0],[-121.654514663046,52.47953851240666,0.0],[-121.6550250737752,52.47958438013476,0.0],[-121.6557317793582,52.47964850181801,0.0],[-121.6563070546718,52.47971913910394,0.0],[-121.6566726741353,52.47977938028013,0.0],[-121.6570380506857,52.47984763023312,0.0],[-121.6575589044954,52.4799817449165,0.0],[-121.6580280169166,52.4800912323211,0.0],[-121.6586285652513,52.48019419564192,0.0],[-121.6592818360615,52.48028974078431,0.0],[-121.6598962394382,52.48036881666589,0.0],[-121.6604326605857,52.48042296830241,0.0],[-121.660983175059,52.48044522636312,0.0],[-121.6614933603666,52.48049907620311,0.0],[-121.662147371201,52.48057057584184,0.0],[-121.6625669401673,52.48058333285842,0.0],[-121.6630523479102,52.48058881983635,0.0],[-121.6635909605909,52.48057086791184,0.0],[-121.6639976536088,52.48057546172417,0.0],[-121.6644310701961,52.48056433052768,0.0],[-121.6650080695537,52.48057885618807,0.0],[-121.6653496520306,52.48056668521847,0.0],[-121.6659007829775,52.48050763774455,0.0],[-121.6661623474115,52.48050159645662,0.0],[-121.6664876298208,52.48048728203598,0.0],[-121.6667870262853,52.4804816658328,0.0],[-121.6671221939978,52.48047645192626,0.0],[-121.6674805975354,52.48046250796111,0.0],[-121.6678191737116,52.48046632132249,0.0],[-121.6680071341925,52.48045944704283,0.0],[-121.6683027029601,52.48045378390488,0.0],[-121.6686279152469,52.48041249027127,0.0],[-121.668981483174,52.48040747818587,0.0],[-121.6692928722385,52.48042896311926,0.0],[-121.6695966301088,52.48045935225382,0.0],[-121.6698860626754,52.48047159784102,0.0],[-121.6701909755549,52.48049300758693,0.0],[-121.6705158620576,52.48049665933367,0.0],[-121.6708068674374,52.48049093865124,0.0],[-121.6711649992886,52.48048597131773,0.0],[-121.6714851752327,52.48048956748688,0.0],[-121.6718435777322,52.48047561029433,0.0],[-121.6721533257456,52.48048807841889,0.0],[-121.6724867981931,52.48050980281354,0.0],[-121.6727729695484,52.48051301388981,0.0],[-121.6730628211459,52.48051626555537,0.0],[-121.6733813542439,52.48051084731875,0.0],[-121.6736752286799,52.48053212428194,0.0],[-121.6739755081019,52.48052649978377,0.0],[-121.6742615325302,52.48052970561028,0.0],[-121.6745651491227,52.48050613533202,0.0],[-121.6748625461919,52.48046900834319,0.0],[-121.6749781903881,52.48044782662295,0.0],[-121.6750887309721,52.48044456931191,0.0],[-121.6752915461696,52.48043335441289,0.0],[-121.675635373683,52.48041922252099,0.0],[-121.6758181439183,52.48039879146621,0.0],[-121.6761487220116,52.48033056472905,0.0],[-121.6763933186111,52.48031082467557,0.0],[-121.6765747393987,52.48033533155572,0.0],[-121.6768541892567,52.4804103842809,0.0],[-121.6775226498416,52.48052125383971,0.0],[-121.6778042584104,52.48052440173049,0.0],[-121.6781080704265,52.4805188062266,0.0],[-121.6782292474991,52.48052915109459,0.0],[-121.6782766108966,52.48051619404122,0.0],[-121.6786832868865,52.48055220509091,0.0],[-121.6788333672498,52.48058085384906,0.0],[-121.6791323469055,52.48058419258047,0.0],[-121.6791706462254,52.48059361105477,0.0],[-121.6793421184863,52.48058653466636,0.0],[-121.6796008092259,52.48055345907188,0.0],[-121.6799309208072,52.4805301707618,0.0],[-121.6802530119096,52.48053376456149,0.0],[-121.6806210319911,52.48053786974951,0.0],[-121.6806429787455,52.48054260994275,0.0],[-121.6807021308683,52.48053427881882,0.0],[-121.6807679711672,52.48054849934141,0.0],[-121.6810541437298,52.48055169038967,0.0],[-121.6813266577767,52.48051426973246,0.0],[-121.68163458999,52.48040531649788,0.0],[-121.6820385278842,52.4804098175665,0.0],[-121.6821268525109,52.48041080158146,0.0],[-121.682456055885,52.48048189987608,0.0],[-121.6827491294721,52.48053011785566,0.0],[-121.6829987902505,52.48058234721022,0.0],[-121.6832917869727,52.48060359048301,0.0],[-121.6836203989619,52.48057128435787,0.0],[-121.683729293929,52.48055900982735,0.0],[-121.6839852955083,52.4804629589065,0.0],[-121.6840751740749,52.48044148167107,0.0],[-121.6843632233565,52.4803817497633,0.0],[-121.6844853217241,52.48045503429006,0.0],[-121.6845875079129,52.48051461102405,0.0],[-121.6845367529133,52.48067588161155,0.0],[-121.6844770335242,52.48079209832631,0.0],[-121.6847537580589,52.48083563408843,0.0],[-121.6849681739691,52.48086499031955,0.0],[-121.6851008888954,52.48089343805646,0.0],[-121.6852025956448,52.48093952267073,0.0],[-121.6855480276601,52.48101978351409,0.0],[-121.685672432063,52.48107511075352,0.0],[-121.6859588222952,52.48110076941043,0.0],[-121.6861680613355,52.48112107512065,0.0],[-121.686244463496,52.48112192363885,0.0],[-121.6866109905422,52.48111700275218,0.0],[-121.686721532136,52.48111373457642,0.0],[-121.6868037290315,52.48113262872256,0.0],[-121.687318536756,52.48109338828252,0.0],[-121.6875949573367,52.48108296902922,0.0],[-121.6877016847947,52.48108415303745,0.0],[-121.6880222683254,52.48107422269089,0.0],[-121.6882940201842,52.48112668582161,0.0],[-121.6888304552262,52.48113263275202,0.0],[-121.6890353858934,52.48113939938894,0.0],[-121.6896056933563,52.48115021358524,0.0],[-121.6900106561289,52.48115020333046,0.0],[-121.6901345526139,52.48113359361451,0.0],[-121.690360948789,52.48113160480741,0.0],[-121.690718868559,52.48110409883794,0.0],[-121.6908211660935,52.48110073558821,0.0],[-121.6910539059603,52.4811033110732,0.0],[-121.6913168517147,52.48111521108863,0.0],[-121.6916150364598,52.48114548192417,0.0],[-121.691868175109,52.48117525389205,0.0],[-121.6922335027966,52.48121076102802,0.0],[-121.6924124060096,52.48122622489787,0.0],[-121.6925961179139,52.4812732095248,0.0],[-121.6929424147505,52.48129501790067,0.0],[-121.693019301099,52.48130935362512,0.0],[-121.693206680265,52.48135188240401,0.0],[-121.6932783373931,52.48138863725054,0.0],[-121.6933714106018,52.48144810565925,0.0],[-121.6935179436121,52.48156210935407,0.0],[-121.6936134151345,52.48163509028804,0.0],[-121.693994657101,52.4818146208499,0.0],[-121.6942787469137,52.48194812377205,0.0],[-121.6948805495816,52.48213907651509,0.0],[-121.6950232378062,52.48219909096608,0.0],[-121.69511534643,52.48223157487576,0.0],[-121.6952675615067,52.48227820788408,0.0],[-121.6955168628634,52.48234838836204,0.0],[-121.6959306166037,52.48260918847383,0.0],[-121.6962215543836,52.48267083560504,0.0],[-121.696409779083,52.48274483644185,0.0],[-121.6967822267376,52.48288380230365,0.0],[-121.6970921729784,52.48295015208736,0.0],[-121.6971524424991,52.4829687974966,0.0],[-121.6974534819735,52.48305752527683,0.0],[-121.6976000043637,52.48311757879757,0.0],[-121.6979299585451,52.4832246053157,0.0],[-121.6980809132217,52.48328920242572,0.0],[-121.6981306129777,52.48331672182325,0.0],[-121.6983670261883,52.48344969010865,0.0],[-121.6986566320956,52.48355177521365,0.0],[-121.6988850117589,52.48361272755752,0.0],[-121.6992165767966,52.48376022682715,0.0],[-121.6996316918278,52.48388616654184,0.0],[-121.6998844101228,52.48396087068921,0.0],[-121.699955311549,52.48398862231261,0.0],[-121.7001107031962,52.48405776096473,0.0],[-121.700254391382,52.48414924785757,0.0],[-121.7005590979601,52.48436387930964,0.0],[-121.7009995458415,52.48453504648388,0.0],[-121.7010780896457,52.48455838593556,0.0],[-121.7013180058829,52.48463294641832,0.0],[-121.701707753212,52.48474061866062,0.0],[-121.7020502415689,52.48480281706275,0.0],[-121.7023216367854,52.48486873005366,0.0],[-121.7024930377656,52.48492455493113,0.0],[-121.7027155709682,52.48499442649517,0.0],[-121.7028096801239,52.48504940330612,0.0],[-121.7028694528015,52.48527033351806,0.0],[-121.70290344062,52.48539657749315,0.0],[-121.7034650173477,52.48577135656543,0.0],[-121.7038637497222,52.48591957871597,0.0],[-121.7041809053925,52.48606241058668,0.0],[-121.7044827316541,52.48615562429387,0.0],[-121.7047757102832,52.48624424495409,0.0],[-121.7050430418153,52.48632359334372,0.0],[-121.705287630105,52.48642516923449,0.0],[-121.7054588173216,52.48645851040577,0.0],[-121.7057586184377,52.4865606894705,0.0],[-121.7061550191756,52.48666841968786,0.0],[-121.7064987683274,52.48674860048895,0.0],[-121.7066854323372,52.4867866044934,0.0],[-121.7068182958563,52.48680603851242,0.0],[-121.7071004894006,52.48688104926822,0.0],[-121.7074552843007,52.48696134798623,0.0],[-121.7077613855909,52.48700964595489,0.0],[-121.7080430937648,52.48707116294292,0.0],[-121.7083841838278,52.4871468137905,0.0],[-121.7087142706572,52.48719087574751,0.0],[-121.7088718869212,52.48721507302231,0.0],[-121.7091582340963,52.48733957356627,0.0],[-121.7093995889546,52.48739615159199,0.0],[-121.7096417905133,52.48748420615383,0.0],[-121.7098837457562,52.48758574372615,0.0],[-121.7100480312762,52.48766395694222,0.0],[-121.710334836899,52.48783341358946,0.0],[-121.7104983354674,52.4879385899835,0.0],[-121.7105734730269,52.48807876630653,0.0],[-121.7106627348518,52.48817414252375,0.0],[-121.7106861719048,52.48822384733202,0.0],[-121.7108056711424,52.4884184517302,0.0],[-121.7109295679373,52.48864906709812,0.0],[-121.7110237697015,52.48876697384138,0.0],[-121.7110702715827,52.48884390224879,0.0],[-121.7111470842004,52.48895712403483,0.0],[-121.7113672148806,52.48917080567239,0.0],[-121.7113902952543,52.48920252485221,0.0],[-121.712447766251,52.48880046172012,0.0],[-121.7134866823874,52.48840268281737,0.0],[-121.7138452890183,52.48863584718487,0.0],[-121.7138669812534,52.48864956919928,0.0],[-121.7140155396171,52.48873210126371,0.0],[-121.7142619111453,52.48886964096057,0.0],[-121.7143486811457,52.48892452869332,0.0],[-121.7144496509883,52.48899755224671,0.0],[-121.7145298119408,52.48905686342339,0.0],[-121.7146515916754,52.48914359909871,0.0],[-121.7147791279654,52.48931580970396,0.0],[-121.7148664235171,52.4893527211723,0.0],[-121.7150720348562,52.48937293607968,0.0],[-121.7153029034768,52.48953727755838,0.0],[-121.7155795172647,52.48964817048087,0.0],[-121.7158726892418,52.48969630694417,0.0],[-121.7161811094604,52.48972662656648,0.0],[-121.7164274933276,52.48986416180963,0.0],[-121.7167046353207,52.48995707622602,0.0],[-121.7169820400812,52.49004100204745,0.0],[-121.7172560459346,52.49024177060713,0.0],[-121.7174464153167,52.49027979767574,0.0],[-121.7175489622725,52.49029889090141,0.0],[-121.717752173868,52.49030558892721,0.0],[-121.7177232015246,52.4903547242461,0.0],[-121.71723344189,52.49114509966763,0.0],[-121.7171491872142,52.49125657093817,0.0],[-121.7174384319329,52.49135096436724,0.0],[-121.7177098127539,52.49149813292928,0.0],[-121.7179946409848,52.49165683455855,0.0],[-121.7181609384433,52.49179349822813,0.0],[-121.7182085326286,52.49180300466932,0.0],[-121.7184185827051,52.49198509590847,0.0],[-121.7185814937729,52.49208126375621,0.0],[-121.7187975648989,52.4922184655962,0.0],[-121.7190178410092,52.49233773099434,0.0],[-121.7191550165326,52.49240215164371,0.0],[-121.7192496843738,52.49243913962868,0.0],[-121.7195174715437,52.49250497369959,0.0],[-121.7198214496837,52.49256220798811,0.0],[-121.7201425731308,52.49259715001184,0.0],[-121.7204789607819,52.4926187700713,0.0],[-121.7207505920811,52.49264867978376,0.0],[-121.7210708626637,52.49265214232499,0.0],[-121.7214392505577,52.49264713322335,0.0],[-121.7217482167541,52.49265946254584,0.0],[-121.7220503417535,52.49265373560382,0.0],[-121.7222592908216,52.49265599241676,0.0],[-121.7223680469782,52.49267964387204,0.0],[-121.7226666099442,52.49270534461834,0.0],[-121.7228663847416,52.49273447364622,0.0],[-121.7232211813238,52.49275628461462,0.0],[-121.7234877129549,52.4927996191627,0.0],[-121.7238146868541,52.49286158665412,0.0],[-121.7240775285061,52.49294084317664,0.0],[-121.7243293271904,52.49301998004118,0.0],[-121.724502321833,52.49305331292608,0.0],[-121.7247431046009,52.49310086242009,0.0],[-121.7248322096491,52.49310631822507,0.0],[-121.7250708715817,52.49309989952864,0.0],[-121.7252836170001,52.49309320112198,0.0],[-121.7255678578357,52.49306929094147,0.0],[-121.7257175443115,52.49305292169868,0.0],[-121.7259426239183,52.49303736417809,0.0],[-121.7262370244757,52.49301356179927,0.0],[-121.7265556437793,52.49300800092239,0.0],[-121.726965567051,52.49296745855827,0.0],[-121.7271383538092,52.49294684069189,0.0],[-121.7273671457019,52.4928638895902,0.0],[-121.7275440023684,52.4928298287496,0.0],[-121.727758660456,52.49282314646969,0.0],[-121.7279274002631,52.49278450238624,0.0],[-121.7283105380826,52.49274816276243,0.0],[-121.7286607791257,52.49273394533937,0.0],[-121.7289839845954,52.49269695950426,0.0],[-121.7291481403979,52.4926537690523,0.0],[-121.7293910454372,52.49256647026623,0.0],[-121.7297518619003,52.49247144623304,0.0],[-121.730047917131,52.49242067983815,0.0],[-121.7302869679698,52.49236480555782,0.0],[-121.73033764473,52.49233388170602,0.0],[-121.7305281913137,52.49229996333446,0.0],[-121.7307561926841,52.49227993264099,0.0],[-121.7310990668313,52.49226562898406,0.0],[-121.7313733978276,52.4922326078292,0.0],[-121.7317089089356,52.4922182234537,0.0],[-121.7320525545508,52.49221291607837,0.0],[-121.7323804443482,52.49220743889247,0.0],[-121.7326758279135,52.49221060337138,0.0],[-121.7327679883917,52.49220709516076,0.0],[-121.733033167655,52.49220543983683,0.0],[-121.7333954390524,52.49221830956201,0.0],[-121.733524797179,52.49223767591262,0.0],[-121.7337180983347,52.49226671729443,0.0],[-121.7338327336694,52.49224996264606,0.0],[-121.7341444988528,52.49226228954202,0.0],[-121.7341657028965,52.49226251641163,0.0],[-121.7344811495358,52.49227488180828,0.0],[-121.7348233582704,52.49231450485992,0.0],[-121.7351822078168,52.49231834174508,0.0],[-121.7354537378515,52.49232124427033,0.0],[-121.7357817383553,52.49234273114314,0.0],[-121.7364030995718,52.49237634142839,0.0],[-121.736699000296,52.49239748291293,0.0],[-121.7369530081171,52.49240019489339,0.0],[-121.7372698551092,52.49239458626079,0.0],[-121.7376202021864,52.49240731576543,0.0],[-121.7381016773085,52.49243942444467,0.0],[-121.7383879335088,52.49244247729816,0.0],[-121.7385737644647,52.49244445876965,0.0],[-121.7389902655564,52.49246688029234,0.0],[-121.739366639823,52.49247089126114,0.0],[-121.7395532447152,52.49248187020452,0.0],[-121.7398104206652,52.49250259132758,0.0],[-121.7401389386312,52.49250609008555,0.0],[-121.7404472832111,52.49250937316413,0.0],[-121.7406140814459,52.49250215803836,0.0],[-121.7409024753815,52.49252320908692,0.0],[-121.7412170425676,52.49253554714402,0.0],[-121.7415241001084,52.4925478044838,0.0],[-121.7418311768106,52.49256455661083,0.0],[-121.7420434235898,52.4925802996864,0.0],[-121.7423833569426,52.49260189510703,0.0],[-121.7426252970521,52.49264042967054,0.0],[-121.7427618759929,52.49265986263551,0.0],[-121.7430921681225,52.4926993350843,0.0],[-121.7434465911138,52.49273456751774,0.0],[-121.7437048971168,52.49277776906224,0.0],[-121.7440318938529,52.49280371774578,0.0],[-121.7441357454132,52.49281381092716,0.0],[-121.7443913827903,52.49285248725983,0.0],[-121.7446795318887,52.49291848028079,0.0],[-121.7450551431472,52.49294943731246,0.0],[-121.7454270811142,52.49301631723319,0.0],[-121.7457517905425,52.4930916860664,0.0],[-121.7459744267374,52.49312551372652,0.0],[-121.746341035846,52.49321930654997,0.0],[-121.7467438127114,52.49329999521684,0.0],[-121.7470322131306,52.49338846202844,0.0],[-121.7473442250961,52.49345470123409,0.0],[-121.7476636007751,52.49352101755718,0.0],[-121.7480694363534,52.4935253126365,0.0],[-121.7483596373083,52.49351939231046,0.0],[-121.7486353678375,52.49350432746756,0.0],[-121.7489218768801,52.49346240369394,0.0],[-121.7493239122918,52.49343968202231,0.0],[-121.7496078883133,52.49342470207857,0.0],[-121.7497253187288,52.49340796158473,0.0],[-121.7499707136223,52.49339257305528,0.0],[-121.7502531486828,52.4933955567917,0.0],[-121.7505783952683,52.49339000121365,0.0],[-121.7509246992514,52.49338466705611,0.0],[-121.7512668002729,52.49336130601832,0.0],[-121.7516001729648,52.49332886114082,0.0],[-121.7517959219641,52.49330844959147,0.0],[-121.7519842952095,52.49325199690508,0.0],[-121.7521181037325,52.49317698691228,0.0],[-121.7523625999088,52.49312562094002,0.0],[-121.7524802829079,52.4930998896294,0.0],[-121.752728332429,52.493053055748,0.0],[-121.7528801578307,52.49302318859744,0.0],[-121.7530687964824,52.49299370924685,0.0],[-121.7533066780731,52.49297823462509,0.0],[-121.7536110920106,52.49299043270348,0.0],[-121.7539596822972,52.49300309526392,0.0],[-121.7542587549842,52.49300624466961,0.0],[-121.7546135708419,52.49302796160323,0.0],[-121.7549465274626,52.49306742893845,0.0],[-121.7553566866696,52.49311669828094,0.0],[-121.7557673542427,52.49314799004404,0.0],[-121.7559698334884,52.49311865162804,0.0],[-121.7563166298472,52.49302789475674,0.0],[-121.7566032760425,52.49298595386139,0.0],[-121.756922776189,52.49298032046277,0.0],[-121.7572627445719,52.4929749011998,0.0],[-121.7575302163557,52.49302266413791,0.0],[-121.7576166545494,52.49302357184942,0.0],[-121.7579741406759,52.49308126972622,0.0],[-121.7583563665266,52.49313922615531,0.0],[-121.7585616369705,52.49317284783282,0.0],[-121.7589425589744,52.49330799449313,0.0],[-121.7592543641535,52.49342344079001,0.0],[-121.75944896142,52.49350560706897,0.0],[-121.7596569083176,52.49357990040765,0.0],[-121.7598591811777,52.49364947912379,0.0],[-121.7600329829286,52.49374409379873,0.0],[-121.7603323463541,52.49383536912107,0.0],[-121.7606466364646,52.49386269949817,0.0],[-121.7610421452649,52.4938027413349,0.0],[-121.7612815940803,52.49367786626135,0.0],[-121.761407519862,52.49365221238816,0.0],[-121.7617267933825,52.49359711453385,0.0],[-121.7618991675601,52.49355396477664,0.0],[-121.7621781957908,52.49355021775004,0.0],[-121.7625467781764,52.49351401055895,0.0],[-121.7628900122871,52.49344548690953,0.0],[-121.7633104128699,52.49343385685819,0.0],[-121.763587578574,52.49338066570958,0.0],[-121.7639833038183,52.49331268743944,0.0],[-121.7644430732142,52.49330146465068,0.0],[-121.7647971815275,52.49331317469861,0.0],[-121.7652157853039,52.49336561964328,0.0],[-121.7656221639086,52.49338588529695,0.0],[-121.7659338306329,52.49343877934486,0.0],[-121.7660945542077,52.4934854093714,0.0],[-121.7662985309264,52.49360927925347,0.0],[-121.7665445157969,52.49373203244443,0.0],[-121.7666594900687,52.49384540692144,0.0],[-121.7668009363248,52.49395104464413,0.0],[-121.7670582556568,52.49413801538606,0.0],[-121.7671976874295,52.49431574468768,0.0],[-121.7673900635522,52.49447800028481,0.0],[-121.7675833369847,52.49460821465997,0.0],[-121.7678822743587,52.49471549145472,0.0]]]}}]}