{"type":"FeatureCollection","features":[{"type":"Feature","id":"74242a4c-fdfd-462b-9536-8236ff0a094e","properties":{"id":"74242a4c-fdfd-462b-9536-8236ff0a094e","updated_date":"2026-04-06T23:09:51Z","time_created":"2026-04-06T23:08:29Z","last_updated_on_server":"2026-04-11T19:54:29.967769","db_insert_date":"2026-04-06T23:09:51Z","deleted":false,"title":"Tenquille Lake","public":false,"color":"#5E7A8C","hexcolor":"#5E7A8C","is_active":true,"revision":1775937269,"notes":"","track_type":"polygon","routing_mode":null,"uploaded_gpx_to_osm":null,"flag":null,"source":null,"cover_photo_id":null,"distance":0.0,"total_ascent":0.0,"total_descent":0.0,"stopped_time":0.0,"total_time":0.0,"average_speed":0,"moving_time":0.0,"moving_speed":0,"activities":[],"imported":false,"folder":null,"privacy_level":null,"sync_to_mobile":true,"preferred_link":"/public/fAujuIb2CfhPC1OaGBCIUfKk","favorite_count":0,"comment_count":0,"comments":[],"user_photo_count":0,"writable":false},"style":{"stroke":"#5E7A8C"},"geometry":{"type":"Polygon","coordinates":[[[-123.09668959948031,50.57238308060755,0.0],[-123.09578955627677,50.487892658715026,0.0],[-122.90136760738841,50.48808355225816,0.0],[-122.90346784449063,50.57295466314048,0.0],[-123.09668959948031,50.57238308060755,0.0]]]}}]}